{"type": "FeatureCollection", "features": [{"type": "Feature", "properties": {"lineId": "M", "code": "M-01", "name": "Lebak Bulus", "color": "#D42E12", "distAlong": 0.0}, "geometry": {"type": "Point", "coordinates": [106.774932, -6.289296]}}, {"type": "Feature", "properties": {"lineId": "M", "code": "M-02", "name": "Fatmawati", "color": "#D42E12", "distAlong": 2.0117}, "geometry": {"type": "Point", "coordinates": [106.792463, -6.292471]}}, {"type": "Feature", "properties": {"lineId": "M", "code": "M-03", "name": "Cipete Raya", "color": "#D42E12", "distAlong": 3.8373}, "geometry": {"type": "Point", "coordinates": [106.797342, -6.278372]}}, {"type": "Feature", "properties": {"lineId": "M", "code": "M-04", "name": "Haji Nawi", "color": "#D42E12", "distAlong": 5.1428}, "geometry": {"type": "Point", "coordinates": [106.797344, -6.266696]}}, {"type": "Feature", "properties": {"lineId": "M", "code": "M-05", "name": "Blok A", "color": "#D42E12", "distAlong": 6.37}, "geometry": {"type": "Point", "coordinates": [106.797172, -6.255787]}}, {"type": "Feature", "properties": {"lineId": "M", "code": "M-06", "name": "Blok M", "color": "#D42E12", "distAlong": 7.6407}, "geometry": {"type": "Point", "coordinates": [106.798239, -6.244423]}}, {"type": "Feature", "properties": {"lineId": "M", "code": "M-07", "name": "ASEAN", "color": "#D42E12", "distAlong": 8.2714}, "geometry": {"type": "Point", "coordinates": [106.79847, -6.238771]}}, {"type": "Feature", "properties": {"lineId": "M", "code": "M-08", "name": "Senayan", "color": "#D42E12", "distAlong": 9.7874}, "geometry": {"type": "Point", "coordinates": [106.802524, -6.226784]}}, {"type": "Feature", "properties": {"lineId": "M", "code": "M-09", "name": "Istora", "color": "#D42E12", "distAlong": 10.6212}, "geometry": {"type": "Point", "coordinates": [106.808665, -6.222442]}}, {"type": "Feature", "properties": {"lineId": "M", "code": "M-10", "name": "Bendungan Hilir", "color": "#D42E12", "distAlong": 11.9392}, "geometry": {"type": "Point", "coordinates": [106.817995, -6.215063]}}, {"type": "Feature", "properties": {"lineId": "M", "code": "M-11", "name": "Setiabudi", "color": "#D42E12", "distAlong": 12.7302}, "geometry": {"type": "Point", "coordinates": [106.821762, -6.209095]}}, {"type": "Feature", "properties": {"lineId": "M", "code": "M-12", "name": "Dukuh Atas", "color": "#D42E12", "distAlong": 13.6619}, "geometry": {"type": "Point", "coordinates": [106.822828, -6.200802]}}, {"type": "Feature", "properties": {"lineId": "M", "code": "M-13", "name": "Bundaran HI", "color": "#D42E12", "distAlong": 14.6608}, "geometry": {"type": "Point", "coordinates": [106.823062, -6.191849]}}, {"type": "Feature", "properties": {"lineId": "S", "code": "S-01", "name": "Pegangsaan Dua", "color": "#F47B20", "distAlong": 0.0}, "geometry": {"type": "Point", "coordinates": [106.914138, -6.157205]}}, {"type": "Feature", "properties": {"lineId": "S", "code": "S-02", "name": "Boulevard Utara", "color": "#F47B20", "distAlong": 1.4496}, "geometry": {"type": "Point", "coordinates": [106.905876, -6.159661]}}, {"type": "Feature", "properties": {"lineId": "S", "code": "S-03", "name": "Boulevard Selatan", "color": "#F47B20", "distAlong": 2.673}, "geometry": {"type": "Point", "coordinates": [106.900039, -6.169008]}}, {"type": "Feature", "properties": {"lineId": "S", "code": "S-04", "name": "Pulomas", "color": "#F47B20", "distAlong": 3.8707}, "geometry": {"type": "Point", "coordinates": [106.893416, -6.177319]}}, {"type": "Feature", "properties": {"lineId": "S", "code": "S-05", "name": "Equestrian", "color": "#F47B20", "distAlong": 4.6648}, "geometry": {"type": "Point", "coordinates": [106.891312, -6.184061]}}, {"type": "Feature", "properties": {"lineId": "S", "code": "S-06", "name": "Velodrome", "color": "#F47B20", "distAlong": 5.5629}, "geometry": {"type": "Point", "coordinates": [106.891204, -6.192131]}}, {"type": "Feature", "properties": {"lineId": "CB", "code": "CB-01", "name": "Dukuh Atas", "color": "#6CBE45", "distAlong": 0.0}, "geometry": {"type": "Point", "coordinates": [106.825525, -6.204851]}}, {"type": "Feature", "properties": {"lineId": "CB", "code": "CB-02", "name": "Setiabudi", "color": "#6CBE45", "distAlong": 0.802}, "geometry": {"type": "Point", "coordinates": [106.830218, -6.209343]}}, {"type": "Feature", "properties": {"lineId": "CB", "code": "CB-03", "name": "Rasuna Said", "color": "#6CBE45", "distAlong": 2.1982}, "geometry": {"type": "Point", "coordinates": [106.83222, -6.221645]}}, {"type": "Feature", "properties": {"lineId": "CB", "code": "CB-04", "name": "Kuningan", "color": "#6CBE45", "distAlong": 3.0019}, "geometry": {"type": "Point", "coordinates": [106.833182, -6.228787]}}, {"type": "Feature", "properties": {"lineId": "CB", "code": "CB-05", "name": "Pancoran", "color": "#6CBE45", "distAlong": 5.5853}, "geometry": {"type": "Point", "coordinates": [106.838511, -6.242169]}}, {"type": "Feature", "properties": {"lineId": "CB", "code": "CB-06", "name": "Cikoko", "color": "#6CBE45", "distAlong": 7.6654}, "geometry": {"type": "Point", "coordinates": [106.857072, -6.243504]}}, {"type": "Feature", "properties": {"lineId": "CB", "code": "CB-07", "name": "Ciliwung", "color": "#6CBE45", "distAlong": 8.4283}, "geometry": {"type": "Point", "coordinates": [106.86397, -6.243464]}}, {"type": "Feature", "properties": {"lineId": "CB", "code": "CB-08", "name": "Cawang", "color": "#6CBE45", "distAlong": 9.2785}, "geometry": {"type": "Point", "coordinates": [106.871223, -6.245926]}}, {"type": "Feature", "properties": {"lineId": "CB", "code": "CB-09", "name": "TMII", "color": "#6CBE45", "distAlong": 15.2042}, "geometry": {"type": "Point", "coordinates": [106.880543, -6.292911]}}, {"type": "Feature", "properties": {"lineId": "CB", "code": "CB-10", "name": "Kampung Rambutan", "color": "#6CBE45", "distAlong": 17.1664}, "geometry": {"type": "Point", "coordinates": [106.884358, -6.309552]}}, {"type": "Feature", "properties": {"lineId": "CB", "code": "CB-11", "name": "Ciracas", "color": "#6CBE45", "distAlong": 18.7807}, "geometry": {"type": "Point", "coordinates": [106.886616, -6.323768]}}, {"type": "Feature", "properties": {"lineId": "CB", "code": "CB-12", "name": "Harjamukti", "color": "#6CBE45", "distAlong": 24.4596}, "geometry": {"type": "Point", "coordinates": [106.895652, -6.373896]}}, {"type": "Feature", "properties": {"lineId": "BK", "code": "BK-01", "name": "Dukuh Atas", "color": "#2E5AA8", "distAlong": 0.0}, "geometry": {"type": "Point", "coordinates": [106.825525, -6.204851]}}, {"type": "Feature", "properties": {"lineId": "BK", "code": "BK-02", "name": "Setiabudi", "color": "#2E5AA8", "distAlong": 0.802}, "geometry": {"type": "Point", "coordinates": [106.830218, -6.209343]}}, {"type": "Feature", "properties": {"lineId": "BK", "code": "BK-03", "name": "Rasuna Said", "color": "#2E5AA8", "distAlong": 2.1982}, "geometry": {"type": "Point", "coordinates": [106.83222, -6.221645]}}, {"type": "Feature", "properties": {"lineId": "BK", "code": "BK-04", "name": "Kuningan", "color": "#2E5AA8", "distAlong": 3.0019}, "geometry": {"type": "Point", "coordinates": [106.833182, -6.228787]}}, {"type": "Feature", "properties": {"lineId": "BK", "code": "BK-05", "name": "Pancoran", "color": "#2E5AA8", "distAlong": 5.5853}, "geometry": {"type": "Point", "coordinates": [106.838511, -6.242169]}}, {"type": "Feature", "properties": {"lineId": "BK", "code": "BK-06", "name": "Cikoko", "color": "#2E5AA8", "distAlong": 7.6654}, "geometry": {"type": "Point", "coordinates": [106.857072, -6.243504]}}, {"type": "Feature", "properties": {"lineId": "BK", "code": "BK-07", "name": "Ciliwung", "color": "#2E5AA8", "distAlong": 8.4283}, "geometry": {"type": "Point", "coordinates": [106.86397, -6.243464]}}, {"type": "Feature", "properties": {"lineId": "BK", "code": "BK-08", "name": "Cawang", "color": "#2E5AA8", "distAlong": 9.2785}, "geometry": {"type": "Point", "coordinates": [106.871223, -6.245926]}}, {"type": "Feature", "properties": {"lineId": "BK", "code": "BK-09", "name": "Halim", "color": "#2E5AA8", "distAlong": 11.2395}, "geometry": {"type": "Point", "coordinates": [106.887297, -6.245877]}}, {"type": "Feature", "properties": {"lineId": "BK", "code": "BK-10", "name": "Jatibening Baru", "color": "#2E5AA8", "distAlong": 16.4036}, "geometry": {"type": "Point", "coordinates": [106.927915, -6.257743]}}, {"type": "Feature", "properties": {"lineId": "BK", "code": "BK-11", "name": "Cikunir 1", "color": "#2E5AA8", "distAlong": 19.0569}, "geometry": {"type": "Point", "coordinates": [106.951854, -6.256617]}}, {"type": "Feature", "properties": {"lineId": "BK", "code": "BK-12", "name": "Cikunir 2", "color": "#2E5AA8", "distAlong": 20.3337}, "geometry": {"type": "Point", "coordinates": [106.96318, -6.25468]}}, {"type": "Feature", "properties": {"lineId": "BK", "code": "BK-13", "name": "Bekasi Barat", "color": "#2E5AA8", "distAlong": 23.6139}, "geometry": {"type": "Point", "coordinates": [106.990413, -6.252981]}}, {"type": "Feature", "properties": {"lineId": "BK", "code": "BK-14", "name": "Jati Mulya", "color": "#2E5AA8", "distAlong": 27.2844}, "geometry": {"type": "Point", "coordinates": [107.021665, -6.264126]}}, {"type": "Feature", "properties": {"lineId": "B", "code": "B-01", "name": "Jakarta Kota", "color": "#E0001B", "distAlong": 0.0}, "geometry": {"type": "Point", "coordinates": [106.816119, -6.137467]}}, {"type": "Feature", "properties": {"lineId": "B", "code": "B-02", "name": "Jayakarta", "color": "#E0001B", "distAlong": 1.2437}, "geometry": {"type": "Point", "coordinates": [106.823524, -6.142096]}}, {"type": "Feature", "properties": {"lineId": "B", "code": "B-03", "name": "Mangga Besar", "color": "#E0001B", "distAlong": 2.358}, "geometry": {"type": "Point", "coordinates": [106.827222, -6.151273]}}, {"type": "Feature", "properties": {"lineId": "B", "code": "B-04", "name": "Sawah Besar", "color": "#E0001B", "distAlong": 3.538}, "geometry": {"type": "Point", "coordinates": [106.82804, -6.161792]}}, {"type": "Feature", "properties": {"lineId": "B", "code": "B-05", "name": "Juanda", "color": "#E0001B", "distAlong": 4.2503}, "geometry": {"type": "Point", "coordinates": [106.830468, -6.167562]}}, {"type": "Feature", "properties": {"lineId": "B", "code": "B-06", "name": "Gondangdia", "color": "#E0001B", "distAlong": 6.4568}, "geometry": {"type": "Point", "coordinates": [106.832889, -6.186933]}}, {"type": "Feature", "properties": {"lineId": "B", "code": "B-07", "name": "Cikini", "color": "#E0001B", "distAlong": 8.1615}, "geometry": {"type": "Point", "coordinates": [106.841857, -6.199375]}}, {"type": "Feature", "properties": {"lineId": "B", "code": "B-08", "name": "Manggarai", "color": "#E0001B", "distAlong": 9.7764}, "geometry": {"type": "Point", "coordinates": [106.850308, -6.211205]}}, {"type": "Feature", "properties": {"lineId": "B", "code": "B-09", "name": "Tebet", "color": "#E0001B", "distAlong": 11.8765}, "geometry": {"type": "Point", "coordinates": [106.858428, -6.227532]}}, {"type": "Feature", "properties": {"lineId": "B", "code": "B-10", "name": "Cawang", "color": "#E0001B", "distAlong": 13.5466}, "geometry": {"type": "Point", "coordinates": [106.858673, -6.24255]}}, {"type": "Feature", "properties": {"lineId": "B", "code": "B-11", "name": "Duren Kalibata", "color": "#E0001B", "distAlong": 15.0615}, "geometry": {"type": "Point", "coordinates": [106.855031, -6.255446]}}, {"type": "Feature", "properties": {"lineId": "B", "code": "B-12", "name": "Pasar Minggu Baru", "color": "#E0001B", "distAlong": 16.1375}, "geometry": {"type": "Point", "coordinates": [106.851099, -6.264298]}}, {"type": "Feature", "properties": {"lineId": "B", "code": "B-13", "name": "Pasar Minggu", "color": "#E0001B", "distAlong": 18.4272}, "geometry": {"type": "Point", "coordinates": [106.844757, -6.283767]}}, {"type": "Feature", "properties": {"lineId": "B", "code": "B-14", "name": "Tanjung Barat", "color": "#E0001B", "distAlong": 21.4053}, "geometry": {"type": "Point", "coordinates": [106.838647, -6.309692]}}, {"type": "Feature", "properties": {"lineId": "B", "code": "B-15", "name": "Lenteng Agung", "color": "#E0001B", "distAlong": 23.8616}, "geometry": {"type": "Point", "coordinates": [106.834817, -6.330624]}}, {"type": "Feature", "properties": {"lineId": "B", "code": "B-16", "name": "Universitas Pancasila", "color": "#E0001B", "distAlong": 25.0076}, "geometry": {"type": "Point", "coordinates": [106.833922, -6.340663]}}, {"type": "Feature", "properties": {"lineId": "B", "code": "B-17", "name": "Universitas Indonesia", "color": "#E0001B", "distAlong": 27.2364}, "geometry": {"type": "Point", "coordinates": [106.831776, -6.360531]}}, {"type": "Feature", "properties": {"lineId": "B", "code": "B-18", "name": "Pondok Cina", "color": "#E0001B", "distAlong": 28.1826}, "geometry": {"type": "Point", "coordinates": [106.832094, -6.368954]}}, {"type": "Feature", "properties": {"lineId": "B", "code": "B-19", "name": "Depok Baru", "color": "#E0001B", "distAlong": 31.0501}, "geometry": {"type": "Point", "coordinates": [106.821211, -6.392071]}}, {"type": "Feature", "properties": {"lineId": "B", "code": "B-20", "name": "Depok", "color": "#E0001B", "distAlong": 32.5693}, "geometry": {"type": "Point", "coordinates": [106.816942, -6.405023]}}, {"type": "Feature", "properties": {"lineId": "B", "code": "B-21", "name": "Citayam", "color": "#E0001B", "distAlong": 37.8592}, "geometry": {"type": "Point", "coordinates": [106.802056, -6.450029]}}, {"type": "Feature", "properties": {"lineId": "B", "code": "B-22", "name": "Bojong Gede", "color": "#E0001B", "distAlong": 43.0286}, "geometry": {"type": "Point", "coordinates": [106.794959, -6.494016]}}, {"type": "Feature", "properties": {"lineId": "B", "code": "B-23", "name": "Cilebut", "color": "#E0001B", "distAlong": 47.4442}, "geometry": {"type": "Point", "coordinates": [106.800513, -6.532102]}}, {"type": "Feature", "properties": {"lineId": "B", "code": "B-24", "name": "Bogor", "color": "#E0001B", "distAlong": 54.8787}, "geometry": {"type": "Point", "coordinates": [106.790724, -6.594284]}}, {"type": "Feature", "properties": {"lineId": "C", "code": "C-01", "name": "Cikarang", "color": "#00A2E9", "distAlong": 0.0}, "geometry": {"type": "Point", "coordinates": [107.145748, -6.255585]}}, {"type": "Feature", "properties": {"lineId": "C", "code": "C-02", "name": "Metland Telagamurni", "color": "#00A2E9", "distAlong": 3.7767}, "geometry": {"type": "Point", "coordinates": [107.11236, -6.257308]}}, {"type": "Feature", "properties": {"lineId": "C", "code": "C-03", "name": "Cibitung", "color": "#00A2E9", "distAlong": 6.7662}, "geometry": {"type": "Point", "coordinates": [107.085656, -6.261553]}}, {"type": "Feature", "properties": {"lineId": "C", "code": "C-04", "name": "Tambun", "color": "#00A2E9", "distAlong": 10.0657}, "geometry": {"type": "Point", "coordinates": [107.056441, -6.258807]}}, {"type": "Feature", "properties": {"lineId": "C", "code": "C-05", "name": "Bekasi Timur", "color": "#00A2E9", "distAlong": 14.3811}, "geometry": {"type": "Point", "coordinates": [107.019221, -6.247269]}}, {"type": "Feature", "properties": {"lineId": "C", "code": "C-06", "name": "Bekasi", "color": "#00A2E9", "distAlong": 17.1865}, "geometry": {"type": "Point", "coordinates": [106.997126, -6.23524]}}, {"type": "Feature", "properties": {"lineId": "C", "code": "C-07", "name": "Kranji", "color": "#00A2E9", "distAlong": 19.5685}, "geometry": {"type": "Point", "coordinates": [106.978889, -6.223832]}}, {"type": "Feature", "properties": {"lineId": "C", "code": "C-08", "name": "Cakung", "color": "#00A2E9", "distAlong": 22.6092}, "geometry": {"type": "Point", "coordinates": [106.952061, -6.219089]}}, {"type": "Feature", "properties": {"lineId": "C", "code": "C-09", "name": "Klender Baru", "color": "#00A2E9", "distAlong": 24.0355}, "geometry": {"type": "Point", "coordinates": [106.939262, -6.217489]}}, {"type": "Feature", "properties": {"lineId": "C", "code": "C-10", "name": "Buaran", "color": "#00A2E9", "distAlong": 26.0244}, "geometry": {"type": "Point", "coordinates": [106.921403, -6.215326]}}, {"type": "Feature", "properties": {"lineId": "C", "code": "C-11", "name": "Klender", "color": "#00A2E9", "distAlong": 28.3322}, "geometry": {"type": "Point", "coordinates": [106.900642, -6.213407]}}, {"type": "Feature", "properties": {"lineId": "C", "code": "C-12", "name": "Jatinegara", "color": "#00A2E9", "distAlong": 31.8155}, "geometry": {"type": "Point", "coordinates": [106.869283, -6.215012]}}, {"type": "Feature", "properties": {"lineId": "C", "code": "C-13", "name": "Matraman", "color": "#00A2E9", "distAlong": 33.1129}, "geometry": {"type": "Point", "coordinates": [106.858917, -6.212879]}}, {"type": "Feature", "properties": {"lineId": "C", "code": "C-14", "name": "Manggarai", "color": "#00A2E9", "distAlong": 34.4545}, "geometry": {"type": "Point", "coordinates": [106.849479, -6.209515]}}, {"type": "Feature", "properties": {"lineId": "C", "code": "C-15", "name": "Sudirman", "color": "#00A2E9", "distAlong": 37.4954}, "geometry": {"type": "Point", "coordinates": [106.824342, -6.202605]}}, {"type": "Feature", "properties": {"lineId": "C", "code": "C-16", "name": "Karet", "color": "#00A2E9", "distAlong": 38.4428}, "geometry": {"type": "Point", "coordinates": [106.815974, -6.200764]}}, {"type": "Feature", "properties": {"lineId": "C", "code": "C-17", "name": "Tanah Abang", "color": "#00A2E9", "distAlong": 40.8003}, "geometry": {"type": "Point", "coordinates": [106.810653, -6.18259]}}, {"type": "Feature", "properties": {"lineId": "C", "code": "C-18", "name": "Duri", "color": "#00A2E9", "distAlong": 44.209}, "geometry": {"type": "Point", "coordinates": [106.801355, -6.154437]}}, {"type": "Feature", "properties": {"lineId": "C", "code": "C-19", "name": "Angke", "color": "#00A2E9", "distAlong": 45.4228}, "geometry": {"type": "Point", "coordinates": [106.80069, -6.143541]}}, {"type": "Feature", "properties": {"lineId": "C", "code": "C-20", "name": "Kampung Bandan", "color": "#00A2E9", "distAlong": 49.7758}, "geometry": {"type": "Point", "coordinates": [106.828931, -6.132701]}}, {"type": "Feature", "properties": {"lineId": "R", "code": "R-01", "name": "Tanah Abang", "color": "#00A651", "distAlong": 0.0}, "geometry": {"type": "Point", "coordinates": [106.810794, -6.186527]}}, {"type": "Feature", "properties": {"lineId": "R", "code": "R-02", "name": "Palmerah", "color": "#00A651", "distAlong": 3.1595}, "geometry": {"type": "Point", "coordinates": [106.797232, -6.20792]}}, {"type": "Feature", "properties": {"lineId": "R", "code": "R-03", "name": "Kebayoran", "color": "#00A651", "distAlong": 6.9317}, "geometry": {"type": "Point", "coordinates": [106.78228, -6.237843]}}, {"type": "Feature", "properties": {"lineId": "R", "code": "R-04", "name": "Pondok Ranji", "color": "#00A651", "distAlong": 13.2283}, "geometry": {"type": "Point", "coordinates": [106.743565, -6.277592]}}, {"type": "Feature", "properties": {"lineId": "R", "code": "R-05", "name": "Jurangmangu", "color": "#00A651", "distAlong": 15.4625}, "geometry": {"type": "Point", "coordinates": [106.727485, -6.289748]}}, {"type": "Feature", "properties": {"lineId": "R", "code": "R-06", "name": "Sudimara", "color": "#00A651", "distAlong": 17.4156}, "geometry": {"type": "Point", "coordinates": [106.711867, -6.297274]}}, {"type": "Feature", "properties": {"lineId": "R", "code": "R-07", "name": "Rawa Buntu", "color": "#00A651", "distAlong": 21.9859}, "geometry": {"type": "Point", "coordinates": [106.675047, -6.315506]}}, {"type": "Feature", "properties": {"lineId": "R", "code": "R-08", "name": "Serpong", "color": "#00A651", "distAlong": 23.3121}, "geometry": {"type": "Point", "coordinates": [106.664746, -6.320146]}}, {"type": "Feature", "properties": {"lineId": "R", "code": "R-09", "name": "Cisauk", "color": "#00A651", "distAlong": 26.0951}, "geometry": {"type": "Point", "coordinates": [106.640591, -6.324954]}}, {"type": "Feature", "properties": {"lineId": "R", "code": "R-10", "name": "Cicayur", "color": "#00A651", "distAlong": 28.6852}, "geometry": {"type": "Point", "coordinates": [106.618165, -6.329981]}}, {"type": "Feature", "properties": {"lineId": "R", "code": "R-11", "name": "Jatake", "color": "#00A651", "distAlong": 30.2213}, "geometry": {"type": "Point", "coordinates": [106.605557, -6.335192]}}, {"type": "Feature", "properties": {"lineId": "R", "code": "R-12", "name": "Parung Panjang", "color": "#00A651", "distAlong": 34.5325}, "geometry": {"type": "Point", "coordinates": [106.568689, -6.344251]}}, {"type": "Feature", "properties": {"lineId": "R", "code": "R-13", "name": "Cilejit", "color": "#00A651", "distAlong": 41.6816}, "geometry": {"type": "Point", "coordinates": [106.508763, -6.353663]}}, {"type": "Feature", "properties": {"lineId": "R", "code": "R-14", "name": "Daru", "color": "#00A651", "distAlong": 44.3645}, "geometry": {"type": "Point", "coordinates": [106.492137, -6.337074]}}, {"type": "Feature", "properties": {"lineId": "R", "code": "R-15", "name": "Tenjo", "color": "#00A651", "distAlong": 48.1975}, "geometry": {"type": "Point", "coordinates": [106.460797, -6.326878]}}, {"type": "Feature", "properties": {"lineId": "R", "code": "R-16", "name": "Tigaraksa", "color": "#00A651", "distAlong": 51.3184}, "geometry": {"type": "Point", "coordinates": [106.433092, -6.329216]}}, {"type": "Feature", "properties": {"lineId": "R", "code": "R-17", "name": "Cikoya", "color": "#00A651", "distAlong": 53.9161}, "geometry": {"type": "Point", "coordinates": [106.410738, -6.335841]}}, {"type": "Feature", "properties": {"lineId": "R", "code": "R-18", "name": "Maja", "color": "#00A651", "distAlong": 55.7634}, "geometry": {"type": "Point", "coordinates": [106.394932, -6.33183]}}, {"type": "Feature", "properties": {"lineId": "R", "code": "R-19", "name": "Citeras", "color": "#00A651", "distAlong": 63.0208}, "geometry": {"type": "Point", "coordinates": [106.331842, -6.335098]}}, {"type": "Feature", "properties": {"lineId": "R", "code": "R-20", "name": "Rangkasbitung", "color": "#00A651", "distAlong": 72.8759}, "geometry": {"type": "Point", "coordinates": [106.250674, -6.35271]}}, {"type": "Feature", "properties": {"lineId": "T", "code": "T-01", "name": "Duri", "color": "#8D5B2D", "distAlong": 0.0}, "geometry": {"type": "Point", "coordinates": [106.80124, -6.156524]}}, {"type": "Feature", "properties": {"lineId": "T", "code": "T-02", "name": "Grogol", "color": "#8D5B2D", "distAlong": 1.9538}, "geometry": {"type": "Point", "coordinates": [106.787268, -6.161998]}}, {"type": "Feature", "properties": {"lineId": "T", "code": "T-03", "name": "Pesing", "color": "#8D5B2D", "distAlong": 3.6907}, "geometry": {"type": "Point", "coordinates": [106.771586, -6.161189]}}, {"type": "Feature", "properties": {"lineId": "T", "code": "T-04", "name": "Taman Kota", "color": "#8D5B2D", "distAlong": 5.603}, "geometry": {"type": "Point", "coordinates": [106.754563, -6.158184]}}, {"type": "Feature", "properties": {"lineId": "T", "code": "T-05", "name": "Bojong Indah", "color": "#8D5B2D", "distAlong": 7.8018}, "geometry": {"type": "Point", "coordinates": [106.73503, -6.160537]}}, {"type": "Feature", "properties": {"lineId": "T", "code": "T-06", "name": "Rawa Buaya", "color": "#8D5B2D", "distAlong": 9.1783}, "geometry": {"type": "Point", "coordinates": [106.72278, -6.162756]}}, {"type": "Feature", "properties": {"lineId": "T", "code": "T-07", "name": "Kalideres", "color": "#8D5B2D", "distAlong": 11.4506}, "geometry": {"type": "Point", "coordinates": [106.702511, -6.166151]}}, {"type": "Feature", "properties": {"lineId": "T", "code": "T-08", "name": "Poris", "color": "#8D5B2D", "distAlong": 13.9419}, "geometry": {"type": "Point", "coordinates": [106.680274, -6.16979]}}, {"type": "Feature", "properties": {"lineId": "T", "code": "T-09", "name": "Batu Ceper", "color": "#8D5B2D", "distAlong": 15.7704}, "geometry": {"type": "Point", "coordinates": [106.663944, -6.172407]}}, {"type": "Feature", "properties": {"lineId": "T", "code": "T-10", "name": "Tanah Tinggi", "color": "#8D5B2D", "distAlong": 17.8095}, "geometry": {"type": "Point", "coordinates": [106.645729, -6.1753]}}, {"type": "Feature", "properties": {"lineId": "T", "code": "T-11", "name": "Tangerang", "color": "#8D5B2D", "distAlong": 19.4833}, "geometry": {"type": "Point", "coordinates": [106.630717, -6.176814]}}, {"type": "Feature", "properties": {"lineId": "TP", "code": "TP-01", "name": "Jakarta Kota", "color": "#EC008C", "distAlong": 0.0}, "geometry": {"type": "Point", "coordinates": [106.816071, -6.137294]}}, {"type": "Feature", "properties": {"lineId": "TP", "code": "TP-02", "name": "Kampung Bandan", "color": "#EC008C", "distAlong": 1.4927}, "geometry": {"type": "Point", "coordinates": [106.828745, -6.132891]}}, {"type": "Feature", "properties": {"lineId": "TP", "code": "TP-03", "name": "Ancol", "color": "#EC008C", "distAlong": 3.5436}, "geometry": {"type": "Point", "coordinates": [106.846456, -6.127855]}}, {"type": "Feature", "properties": {"lineId": "TP", "code": "TP-04", "name": "Tanjung Priok", "color": "#EC008C", "distAlong": 7.9416}, "geometry": {"type": "Point", "coordinates": [106.88145, -6.110601]}}, {"type": "Feature", "properties": {"lineId": "A", "code": "A-06", "name": "Manggarai", "color": "#6E6E73", "distAlong": 0.0}, "geometry": {"type": "Point", "coordinates": [106.849168, -6.209701]}}, {"type": "Feature", "properties": {"lineId": "A", "code": "A-05", "name": "BNI City", "color": "#6E6E73", "distAlong": 3.6801}, "geometry": {"type": "Point", "coordinates": [106.818681, -6.201353]}}, {"type": "Feature", "properties": {"lineId": "A", "code": "A-04", "name": "Duri", "color": "#6E6E73", "distAlong": 9.5612}, "geometry": {"type": "Point", "coordinates": [106.801263, -6.156166]}}, {"type": "Feature", "properties": {"lineId": "A", "code": "A-03", "name": "Rawa Buaya", "color": "#6E6E73", "distAlong": 18.7831}, "geometry": {"type": "Point", "coordinates": [106.722735, -6.162692]}}, {"type": "Feature", "properties": {"lineId": "A", "code": "A-02", "name": "Batu Ceper", "color": "#6E6E73", "distAlong": 25.3179}, "geometry": {"type": "Point", "coordinates": [106.664384, -6.171994]}}, {"type": "Feature", "properties": {"lineId": "A", "code": "A-01", "name": "Soekarno-Hatta", "color": "#6E6E73", "distAlong": 36.9825}, "geometry": {"type": "Point", "coordinates": [106.651044, -6.127881]}}]}